FOSSASAT-2E20 (TAT-O)   
1 63003U 25009DN  26068.70855016  .00016337  00000+0  61863-3 0  9998
2 63003  97.3231 146.2859 0002189 347.5575  12.5610 15.26991080121314
STARLINK-34141          
1 64020U 25101AC  26067.83547559  .00030132  00000+0  11000-2 0  9990
2 64020  42.9999   2.8639 0000945 285.9629  74.1118 15.27581531 46924
